#dP2021  9 16  0  0  0.00000000      97 __u+U IGS14 FIT  IAC
## 2175 345600.00000000   900.00000000 59473 0.0000000000000
+  122   C01C03C04C05C06C07C08C09C10C11C12C13C14C16C19C20C21
+        C22C23C24C25C26C27C28C29C30C32C33C34C35C36C37C38C39
+        C40C41C42C43C44C45C46C60E01E02E03E04E05E07E08E09E11
+        E12E13E14E15E18E19E21E24E25E26E27E30E31E33E36G01G02
+        G03G04G05G06G07G08G09G10G12G13G14G15G16G17G18G19G20
+        G21G22G23G24G25G26G27G28G29G30G31G32J01J02J03J07R01
+        R02R03R04R05R07R08R09R11R12R13R14R15R16R17R18R19R20
+        R21R22R24  0  0  0  0  0  0  0  0  0  0  0  0  0  0
++        13 13 13 13  8  9  8  8  9  8  8  8  8  8  7  7  7
++         7  7  7  7  7  7  6  7  7  7  7  7  7  7  7  8  7
++         7  7  7  7  7  7  7 13  4  4  4  4  4  5  4  4  4
++         4  4  5  4  4  4  4  4  4  4  4  4  4  4  4  3  3
++         3  3  4  3  3  3  3  3  3  4  3  4  3  3  3  3  3
++         4  3  3  4  3  3  3  4  3  3  3  3  9  8  8 13  6
++         6  6  6  6  5  5  5  7  6  7  6  6  7  7  6  7  7
++         6  7  5  0  0  0  0  0  0  0  0  0  0  0  0  0  0
%c M  cc GPS ccc cccc cccc cccc cccc ccccc ccccc ccccc ccccc
%c cc cc ccc ccc cccc cccc cccc cccc ccccc ccccc ccccc ccccc
%f  1.2500000  1.025000000  0.00000000000  0.000000000000000
%f  0.0000000  0.000000000  0.00000000000  0.000000000000000
%i    0    0    0    0      0      0      0      0         0
%i    0    0    0    0      0      0      0      0         0
/* INFORMATION & ANALYSIS CENTER (IAC)            FINAL DATA
/* S/V CLOCKS ARE ALIGNED TO GNSS TIME                      
/* G:C1WC2W R:C1PC2P E:C1XC5X C:C2IC6I J:C1CC2S             
/* PCV:IGS14_2163 OL/AL:FES2004  NONE     YN ORB:CoN CLK:CoN
*  2021 09 16  4 30  0.00000000
PC01 -34321.868280  24441.330527     42.295071    -67.668491
PC03 -14812.687688  39451.613800   1351.151285 999999.999999
PC04 -39598.091326  14415.137434    186.670027    207.258383
PC05  21784.682806  36083.313378    997.381033    234.608167
PC06 -14929.423054  39192.893413  -5196.870286    198.829978
PC07  -3301.221382  31514.610395 -27734.324027   -107.749291
PC08 -13501.601359  21123.934273  33853.524765   -945.563630
PC09  -9384.854595  38679.041280 -14254.770747   -109.736761
PC10   3849.000187  34355.288438 -23567.860727      0.188738
PC11  -8515.057066 -14458.106139 -22246.745902    577.661847
PC12   5620.345655 -24993.164517 -11072.117009    757.227369
PC13  -4039.796555  22954.650224  35197.761258    410.616537
PC14 -17098.022314 -21634.748207   4488.496425    643.697152
PC16 -16601.938500  38808.009220  -2328.964326   -807.110862
PC19  19786.820386  14528.119555 -13240.479562    961.618101
PC20  12664.088681  24638.382503   3244.999744   -802.149747
PC21   2471.983003 -20562.149757 -18704.659108   -932.722519
PC22  15690.025864  -4389.815873 -22659.372171   -952.038665
PC23 -26248.198842   5899.274716  -7396.535669   -962.435733
PC24  -8784.169906 -15305.976883  21613.175391   -966.147224
PC25 -25608.983732  -5600.735443   9537.440885   -854.223110
PC26  10851.336684 -15308.231630  20662.296090    849.429242
PC27 -12156.661063  25013.632345   2341.028220    598.060490
PC28 -19305.834386  13944.923509 -14534.438966    -25.966155
PC29  15328.424779   4721.284050  22828.531453    447.754133
PC30   2459.197130  21670.784042  17411.011583    480.747686
PC32  -2403.020274  20530.368821  18750.962290   -946.268018
PC33 -19887.940681 -14499.551398  13165.388013   -968.953009
PC34  -3128.084686 -21154.936574 -17930.278112   -581.058489
PC35  18883.383138 -14211.400150  14811.714378    -90.128122
PC36  25297.910759   6415.782064  -9851.317227   -760.026974
PC37 -12190.044519  14791.379102 -20250.612004   -865.446638
PC38 -20996.083099  22146.807891  29010.289311    175.778612
PC39 -18221.617054  37842.822129   4530.773293     33.236476
PC40  -5962.344066  27196.796062 -31603.687104    199.857283
PC41 -15919.055488   4080.549000  22595.381581   -937.005051
PC42 -12177.745098 -24791.048011  -4003.086322   -954.921665
PC43 -15137.435299  -5452.850165 -22809.280518   -916.506264
PC44  11375.714121 -25375.220562  -2171.891677    393.010807
PC45  26175.203987  -6031.109728   7618.570457    548.877223
PC46  10162.303924  14876.512737 -21306.893835     83.169979
PC60   7278.099346  41511.410203    501.248572 999999.999999
PE01  23279.190843  -2062.396025  18178.109175   -475.569201
PE02 -23184.410247   2170.747872 -18257.958501    247.132514
PE03 -15475.807845  10762.754120  22813.573318   -475.099105
PE04   5901.111480 -26955.899787 -10712.705179   -857.662138
PE05 -16123.406156 -12019.581239  21719.401457   -249.013688
PE07   7370.884954  27526.272172  -7987.594229   -586.042136
PE08  -5480.682471  27145.190660  10432.980360   5936.959710
PE09  -7561.471476 -27428.042634   8197.015153   5530.171488
PE11  -4052.634562 -16399.662039 -24317.900782   5420.311625
PE12  15903.078602 -21153.039237 -13258.823792   5007.495621
PE13   3545.300654  16586.381344  24257.046869    421.539538
PE14  14545.447698 -15794.503301  14231.782779  -1572.317623
PE15 -15868.336090  21166.826339  13273.566650    792.076574
PE18 -20159.878124   6154.644798 -22656.468189  -1725.753645
PE19  15977.500556  -8099.185644 -23563.200191    378.724810
PE21  27026.982915  11889.062123   2105.518987   -688.174179
PE24 -14286.520953 -19874.020272  16629.618738  -1120.217084
PE25 -26970.725110 -12049.798936  -1855.750414   -546.806035
PE26  21481.048123   1642.226375  20303.967015   1338.644495
PE27  15343.889528  19686.134823 -15904.705111   -121.404083
PE30  -6596.260780  15302.969992 -24462.398124   2616.217131
PE31   5290.057927 -15854.981775  24446.140239   -485.650602
PE33  25885.758354 -13265.772283   5500.951425   -464.904651
PE36 -20799.830162  -2273.724740 -20936.692807   -263.024760
PG01   2960.087875 -16370.794357 -20894.206183    566.354416
PG02 -21446.381827  15221.087901   4643.632720   -632.565809
PG03  -6113.553288 -19213.812855 -17447.269939   -290.978413
PG04    113.284448 -26050.179346   4997.968142   -204.297344
PG05  -7389.446737  13333.751891  21577.577457    -54.565139
PG06 -24802.589706   5155.665967  -8014.394478     75.342803
PG07 -13455.231691 -10378.162769  20890.221291    245.973756
PG08   6570.054319 -24749.406956   6394.207272    -36.660684
PG09  -8673.839802 -20304.953896  14676.667369   -361.015059
PG10  23323.316877  10709.485917  -7273.844544   -204.228250
PG12   4027.907014  19429.307821 -17970.299623    -98.033726
PG13 -13015.474306  19852.058645  11615.422605    186.121001
PG14 -22853.096335 -11185.714240  -7713.741071      0.446333
PG15  -3648.122425  25477.377541   5398.201609   -120.782494
PG16  12823.362642  -8300.575746  21528.095775   -391.366352
PG17 -13146.603343  -7742.502855 -21308.097845    505.352418
PG18  14774.948067   8853.067099  20230.681901    321.830992
PG19 -15391.747530   2097.417011 -21794.039832     53.539115
PG20 -17578.839431   6321.450766  18753.044260    519.114425
PG21  11071.719163 -18000.593756 -15054.821341    142.945188
PG22   1019.380638 -16788.901077 -20423.109004   -512.138783
PG23  20119.902325  16981.376967   3769.565980     56.929950
PG24  -6705.950323  18553.114347 -17857.812994    235.545425
PG25  14179.365698  19839.918355 -11108.039660    209.026637
PG26  21509.708901    414.940794  15696.620318    134.693709
PG27  11991.623016 -18139.431436  14810.103215   -193.525376
PG28 -21551.408469  -7020.703800 -13135.622971    500.301508
PG29   4745.908370  22586.321151  13039.647107   -412.381358
PG30 -22370.640413  -2128.270915  14409.236031   -473.311109
PG31  25454.826326  -6029.426074  -5962.730272   -140.003764
PG32  14910.955419   3512.603240 -21591.884385     -0.918213
PJ01 -25161.905937  24818.399547  27893.470772     66.610763
PJ02 -28079.625189  14958.510204 -23133.340406     -2.489305
PJ03 -26027.673537  32053.195449  -3861.585754     -2.106141
PJ07 -25404.354218  33643.883187     -0.325208     -0.001078
PR01 -13444.668032 -18552.681709  11220.940913     85.375598
PR02 -11365.336522    412.444419  22863.108175    493.465007
PR03  -2848.005450  17248.220709  18637.407335     43.033270
PR04   7163.109706  24148.214272   4085.480938    104.969514
PR05  13118.131896  17778.857333 -12764.900638     79.027057
PR07   2460.005472 -17677.269399 -18170.629124    -41.183287
PR08  -7264.385126 -24116.998283  -3902.251583    -60.959296
PR09  24132.632692   -661.550669   8144.456713     13.456028
PR11  -6570.297862 -11369.504234  21886.702128     48.615428
PR12 -22193.650426  -8042.980880   9677.389293    262.354720
PR13 -24436.742427     94.697184  -7327.101144    -60.694612
PR14 -11930.497319   8430.800965 -20895.925802     68.856721
PR15   7076.882255  11554.566011 -21583.844344    101.442823
PR16  23063.367918   7096.628238  -8480.213905    -21.503383
PR17 -15457.841598  20187.403512   1700.657029    458.891776
PR18  -5239.298650  18317.630244  16995.317564     90.581999
PR19   6986.131994   7706.511474  23287.218533   -159.545328
PR20  17671.268891  -9762.769380  15575.742816    -55.975233
PR21  15020.991150 -20418.006033  -3029.382620   -239.624062
PR22   4525.333412 -17748.005529 -17727.389053   -133.493540
PR24 -17869.040535  10470.060761 -14860.062033     58.824146
EOF
